{
"type": "FeatureCollection",
"name": "keuka_lake_vineyards",
"crs": { "type": "name", "properties": { "name": "urn:ogc:def:crs:OGC:1.3:CRS84" } },
"features": [
{ "type": "Feature", "properties": { "NAME": "Vineyard View Winery", "OWNER": "FIVE F'S FARM LLC", "PROP_ADDR": "2971 WILLIAMS HILL RD", "MAIL_CITY": "Keuka Park", "MAIL_STATE": "NY" }, "geometry": { "type": "MultiPolygon", "coordinates": [ [ [ [ -77.102626124999972, 42.623581718000025 ], [ -77.102722455999981, 42.623219087 ], [ -77.102294739, 42.623026574999983 ], [ -77.102492461, 42.621731404 ], [ -77.104130291999979, 42.622240866000027 ], [ -77.104143486, 42.622702241000013 ], [ -77.104169187000025, 42.623600948999979 ], [ -77.103759751999974, 42.623609886999986 ], [ -77.103413960000012, 42.623615271 ], [ -77.10318322, 42.623613058999979 ], [ -77.102823914999988, 42.623599491999983 ], [ -77.102671122, 42.623587585 ], [ -77.102626124999972, 42.623581718000025 ] ] ] ] } },
{ "type": "Feature", "properties": { "NAME": "Weis Vineyards", "OWNER": "FLX Vineyards, LLC", "PROP_ADDR": "10014 Day Rd", "MAIL_CITY": "Hammondsport", "MAIL_STATE": "NY" }, "geometry": { "type": "Polygon", "coordinates": [ [ [ -77.136629380484678, 42.483410073281355 ], [ -77.137273717874635, 42.483251938019023 ], [ -77.137945038550214, 42.484174642118674 ], [ -77.138102938348908, 42.484400530981624 ], [ -77.138442682364683, 42.48492223512018 ], [ -77.137831250479906, 42.485072148010083 ], [ -77.137482861968451, 42.484556820631646 ], [ -77.137331266699533, 42.484332586442719 ], [ -77.136955897235353, 42.483777335747746 ], [ -77.136629380484678, 42.483410073281355 ] ] ] } }
]
}
