{
"type": "FeatureCollection",
"name": "osm_way_1272147452",
"crs": { "type": "name", "properties": { "name": "urn:ogc:def:crs:OGC:1.3:CRS84" } },
"features": [
{ "type": "Feature", "properties": { "osm_id": "1272147452", "name": "May's Point Pool", "natural": "water" }, "geometry": { "type": "Polygon", "coordinates": [ [ [ -76.7596338, 42.9926102 ], [ -76.7604794, 42.9927291 ], [ -76.7610974, 42.9926875 ], [ -76.7613575, 42.9922533 ], [ -76.7615039, 42.9919738 ], [ -76.7620649, 42.9917895 ], [ -76.7635285, 42.9920095 ], [ -76.7649026, 42.9921879 ], [ -76.7657889, 42.9922117 ], [ -76.7667402, 42.991837 ], [ -76.7688108, 42.9901117 ], [ -76.7689771, 42.9899508 ], [ -76.7690898, 42.9899391 ], [ -76.7691273, 42.9899587 ], [ -76.7667026, 42.992262 ], [ -76.7647714, 42.9939335 ], [ -76.7643905, 42.9941532 ], [ -76.7615526, 42.9955215 ], [ -76.7611598, 42.9956121 ], [ -76.7608908, 42.9956224 ], [ -76.7605121, 42.9955603 ], [ -76.7584264, 42.9950054 ], [ -76.7556852, 42.9940167 ], [ -76.7553633, 42.9939382 ], [ -76.7550039, 42.9939107 ], [ -76.7490438, 42.9932531 ], [ -76.7489666, 42.9932115 ], [ -76.7489869, 42.9931104 ], [ -76.7509352, 42.9931684 ], [ -76.7519927, 42.9924604 ], [ -76.7531322, 42.9924672 ], [ -76.7541316, 42.9927883 ], [ -76.7554018, 42.9929591 ], [ -76.7565973, 42.9930411 ], [ -76.7571017, 42.9930137 ], [ -76.7576154, 42.9928224 ], [ -76.758017, 42.9924535 ], [ -76.7582972, 42.9921803 ], [ -76.7586708, 42.9920846 ], [ -76.7591098, 42.9921666 ], [ -76.75939, 42.9922554 ], [ -76.7596338, 42.9926102 ] ] ] } }
]
}
